{"type": "FeatureCollection", "features": [ {"type": "Feature", "properties": {"norad_id": 32184, "name": "FENGYUN 1C DEB", "group": "fengyun-1c-debris", "lat": 44.33121863512635, "lon": -54.82538053263846, "alt_km": 459.5025588920789, "timestamp": "2025-12-04T17:48:40.451796+00:00", "meta": {"OBJECT_NAME": "FENGYUN 1C DEB", "OBJECT_ID": "1999-025CUE", "EPOCH": "2025-11-29T15:43:46.172928", "MEAN_MOTION": 15.41247728, "ECCENTRICITY": 0.00737208, "INCLINATION": 98.1191, "RA_OF_ASC_NODE": 111.5023, "ARG_OF_PERICENTER": 34.712, "MEAN_ANOMALY": 325.8902, "EPHEMERIS_TYPE": 0, "CLASSIFICATION_TYPE": "U", "NORAD_CAT_ID": 32184, "ELEMENT_SET_NO": 999, "REV_AT_EPOCH": 98202, "BSTAR": 0.0018533746, "MEAN_MOTION_DOT": 0.00085629, "MEAN_MOTION_DDOT": 0}, "tle": {"line1": "1 32184U 99025CUE 25333.65539552  .00085629  00000+0  18534-2 0  9991", "line2": "2 32184  98.1191 111.5023 0073720  34.7120 325.8902 15.41247728982029"}}, "geometry": {"type": "Point", "coordinates": [-54.82538053263846, 44.33121863512635]}}, {"type": "Feature", "properties": {"norad_id": 32185, "name": "FENGYUN 1C DEB", "group": "fengyun-1c-debris", "lat": 70.00750410009634, "lon": 158.28680589022224, "alt_km": 454.36142212251525, "timestamp": "2025-12-04T17:48:40.451807+00:00", "meta": {"OBJECT_NAME": "FENGYUN 1C DEB", "OBJECT_ID": "1999-025CUF", "EPOCH": "2025-12-03T12:43:36.974784", "MEAN_MOTION": 15.02137123, "ECCENTRICITY": 0.01653752, "INCLINATION": 98.9033, "RA_OF_ASC_NODE": 182.4196, "ARG_OF_PERICENTER": 45.0145, "MEAN_ANOMALY": 316.4343, "EPHEMERIS_TYPE": 0, "CLASSIFICATION_TYPE": "U", "NORAD_CAT_ID": 32185, "ELEMENT_SET_NO": 999, "REV_AT_EPOCH": 94877, "BSTAR": 0.0034005879, "MEAN_MOTION_DOT": 0.00060545, "MEAN_MOTION_DDOT": 0}, "tle": {"line1": "1 32185U 99025CUF 25337.53028906  .00060545  00000+0  34006-2 0  9991", "line2": "2 32185  98.9033 182.4196 0165375  45.0145 316.4343 15.02137123948774"}}, "geometry": {"type": "Point", "coordinates": [158.28680589022224, 70.00750410009634]}}, {"type": "Feature", "properties": {"norad_id": 32186, "name": "FENGYUN 1C DEB", "group": "fengyun-1c-debris", "lat": 33.195720206184546, "lon": 22.777456249916895, "alt_km": 1173.7656638424878, "timestamp": "2025-12-04T17:48:40.451817+00:00", "meta": {"OBJECT_NAME": "FENGYUN 1C DEB", "OBJECT_ID": "1999-025CUG", "EPOCH": "2025-11-27T22:32:39.210144", "MEAN_MOTION": 13.76456233, "ECCENTRICITY": 0.0273811, "INCLINATION": 99.6093, "RA_OF_ASC_NODE": 22.268, "ARG_OF_PERICENTER": 239.107, "MEAN_ANOMALY": 302.2685, "EPHEMERIS_TYPE": 0, "CLASSIFICATION_TYPE": "U", "NORAD_CAT_ID": 32186, "ELEMENT_SET_NO": 999, "REV_AT_EPOCH": 62406, "BSTAR": 0.0013119, "MEAN_MOTION_DOT": 1.643e-05, "MEAN_MOTION_DDOT": 0}, "tle": {"line1": "1 32186U 99025CUG 25331.93934271  .00001643  00000+0  13119-2 0  9997", "line2": "2 32186  99.6093  22.2680 0273811 239.1070 302.2685 13.76456233624066"}}, "geometry": {"type": "Point", "coordinates": [22.777456249916895, 33.195720206184546]}}, {"type": "Feature", "properties": {"norad_id": 32187, "name": "FENGYUN 1C DEB", "group": "fengyun-1c-debris", "lat": -49.32993387955212, "lon": -133.2057641312505, "alt_km": 977.2504108639596, "timestamp": "2025-12-04T17:48:40.451828+00:00", "meta": {"OBJECT_NAME": "FENGYUN 1C DEB", "OBJECT_ID": "1999-025CUH", "EPOCH": "2025-11-14T01:13:51.155328", "MEAN_MOTION": 13.50459969, "ECCENTRICITY": 0.02935721, "INCLINATION": 99.509, "RA_OF_ASC_NODE": 38.2489, "ARG_OF_PERICENTER": 217.6555, "MEAN_ANOMALY": 268.1397, "EPHEMERIS_TYPE": 0, "CLASSIFICATION_TYPE": "U", "NORAD_CAT_ID": 32187, "ELEMENT_SET_NO": 999, "REV_AT_EPOCH": 65871, "BSTAR": 0.0010895496, "MEAN_MOTION_DOT": 8.7e-06, "MEAN_MOTION_DDOT": 0}, "tle": {"line1": "1 32187U 99025CUH 25318.05128652  .00000870  00000+0  10895-2 0  9993", "line2": "2 32187  99.5090  38.2489 0293572 217.6555 268.1397 13.50459969658712"}}, "geometry": {"type": "Point", "coordinates": [-133.2057641312505, -49.32993387955212]}}, {"type": "Feature", "properties": {"norad_id": 32191, "name": "FENGYUN 1C DEB", "group": "fengyun-1c-debris", "lat": -8.408165793495057, "lon": 36.20514780355209, "alt_km": 864.8694901397967, "timestamp": "2025-12-04T17:48:40.451838+00:00", "meta": {"OBJECT_NAME": "FENGYUN 1C DEB", "OBJECT_ID": "1999-025CUM", "EPOCH": "2025-12-03T21:37:51.511296", "MEAN_MOTION": 14.25097125, "ECCENTRICITY": 0.00935196, "INCLINATION": 98.7084, "RA_OF_ASC_NODE": 34.0726, "ARG_OF_PERICENTER": 211.9564, "MEAN_ANOMALY": 147.5923, "EPHEMERIS_TYPE": 0, "CLASSIFICATION_TYPE": "U", "NORAD_CAT_ID": 32191, "ELEMENT_SET_NO": 999, "REV_AT_EPOCH": 64375, "BSTAR": 0.002908959, "MEAN_MOTION_DOT": 7.102e-05, "MEAN_MOTION_DDOT": 0}, "tle": {"line1": "1 32191U 99025CUM 25337.90129064  .00007102  00000+0  29090-2 0  9993", "line2": "2 32191  98.7084  34.0726 0093519 211.9564 147.5923 14.25097125643753"}}, "geometry": {"type": "Point", "coordinates": [36.20514780355209, -8.408165793495057]}}, {"type": "Feature", "properties": {"norad_id": 32192, "name": "FENGYUN 1C DEB", "group": "fengyun-1c-debris", "lat": -78.83173101763848, "lon": -99.2672464677281, "alt_km": 966.7608320244408, "timestamp": "2025-12-04T17:48:40.451848+00:00", "meta": {"OBJECT_NAME": "FENGYUN 1C DEB", "OBJECT_ID": "1999-025CUN", "EPOCH": "2025-12-03T09:13:07.641408", "MEAN_MOTION": 13.82502199, "ECCENTRICITY": 0.0181293, "INCLINATION": 98.6532, "RA_OF_ASC_NODE": 209.013, "ARG_OF_PERICENTER": 187.8363, "MEAN_ANOMALY": 171.9952, "EPHEMERIS_TYPE": 0, "CLASSIFICATION_TYPE": "U", "NORAD_CAT_ID": 32192, "ELEMENT_SET_NO": 999, "REV_AT_EPOCH": 92583, "BSTAR": 0.00038301979, "MEAN_MOTION_DOT": 4.32e-06, "MEAN_MOTION_DDOT": 0}, "tle": {"line1": "1 32192U 99025CUN 25337.38411622  .00000432  00000+0  38302-3 0  9996", "line2": "2 32192  98.6532 209.0130 0181293 187.8363 171.9952 13.82502199925838"}}, "geometry": {"type": "Point", "coordinates": [-99.2672464677281, -78.83173101763848]}}, {"type": "Feature", "properties": {"norad_id": 32195, "name": "FENGYUN 1C DEB", "group": "fengyun-1c-debris", "lat": 28.27435202148084, "lon": 166.13746155975153, "alt_km": 912.7687322201191, "timestamp": "2025-12-04T17:48:40.451858+00:00", "meta": {"OBJECT_NAME": "FENGYUN 1C DEB", "OBJECT_ID": "1999-025CUR", "EPOCH": "2025-12-04T06:51:46.585440", "MEAN_MOTION": 14.08440247, "ECCENTRICITY": 0.00688908, "INCLINATION": 98.773, "RA_OF_ASC_NODE": 340.9294, "ARG_OF_PERICENTER": 324.3516, "MEAN_ANOMALY": 35.3064, "EPHEMERIS_TYPE": 0, "CLASSIFICATION_TYPE": "U", "NORAD_CAT_ID": 32195, "ELEMENT_SET_NO": 999, "REV_AT_EPOCH": 63863, "BSTAR": 0.0010038746, "MEAN_MOTION_DOT": 1.715e-05, "MEAN_MOTION_DDOT": 0}, "tle": {"line1": "1 32195U 99025CUR 25338.28595585  .00001715  00000+0  10039-2 0  9991", "line2": "2 32195  98.7730 340.9294 0068890 324.3516  35.3064 14.08440247638633"}}, "geometry": {"type": "Point", "coordinates": [166.13746155975153, 28.27435202148084]}}, {"type": "Feature", "properties": {"norad_id": 32197, "name": "FENGYUN 1C DEB", "group": "fengyun-1c-debris", "lat": -60.83236292084953, "lon": -96.09012264487444, "alt_km": 706.8074950077125, "timestamp": "2025-12-04T17:48:40.451868+00:00", "meta": {"OBJECT_NAME": "FENGYUN 1C DEB", "OBJECT_ID": "1999-025CUT", "EPOCH": "2025-12-03T23:57:59.056416", "MEAN_MOTION": 14.32629771, "ECCENTRICITY": 0.01611787, "INCLINATION": 98.9011, "RA_OF_ASC_NODE": 246.8393, "ARG_OF_PERICENTER": 255.6326, "MEAN_ANOMALY": 168.4475, "EPHEMERIS_TYPE": 0, "CLASSIFICATION_TYPE": "U", "NORAD_CAT_ID": 32197, "ELEMENT_SET_NO": 999, "REV_AT_EPOCH": 94298, "BSTAR": 0.00093280109, "MEAN_MOTION_DOT": 2.876e-05, "MEAN_MOTION_DDOT": 0}, "tle": {"line1": "1 32197U 99025CUT 25337.99860019  .00002876  00000+0  93280-3 0  9996", "line2": "2 32197  98.9011 246.8393 0161178 255.6326 168.4475 14.32629771942989"}}, "geometry": {"type": "Point", "coordinates": [-96.09012264487444, -60.83236292084953]}}, {"type": "Feature", "properties": {"norad_id": 32198, "name": "FENGYUN 1C DEB", "group": "fengyun-1c-debris", "lat": -80.89589674592794, "lon": -120.10810334692779, "alt_km": 826.1121541396515, "timestamp": "2025-12-04T17:48:40.451879+00:00", "meta": {"OBJECT_NAME": "FENGYUN 1C DEB", "OBJECT_ID": "1999-025CUU", "EPOCH": "2025-11-26T15:55:14.672064", "MEAN_MOTION": 14.08693486, "ECCENTRICITY": 0.00946342, "INCLINATION": 98.344, "RA_OF_ASC_NODE": 118.7379, "ARG_OF_PERICENTER": 338.8779, "MEAN_ANOMALY": 20.8495, "EPHEMERIS_TYPE": 0, "CLASSIFICATION_TYPE": "U", "NORAD_CAT_ID": 32198, "ELEMENT_SET_NO": 999, "REV_AT_EPOCH": 56719, "BSTAR": 0.0016262032, "MEAN_MOTION_DOT": 2.879e-05, "MEAN_MOTION_DDOT": 0}, "tle": {"line1": "1 32198U 99025CUU 25330.66336426  .00002879  00000+0  16262-2 0  9991", "line2": "2 32198  98.3440 118.7379 0094634 338.8779  20.8495 14.08693486567195"}}, "geometry": {"type": "Point", "coordinates": [-120.10810334692779, -80.89589674592794]}}, {"type": "Feature", "properties": {"norad_id": 32200, "name": "FENGYUN 1C DEB", "group": "fengyun-1c-debris", "lat": -18.31757539383189, "lon": 30.760298091483104, "alt_km": 820.0402245198175, "timestamp": "2025-12-04T17:48:40.451889+00:00", "meta": {"OBJECT_NAME": "FENGYUN 1C DEB", "OBJECT_ID": "1999-025CUW", "EPOCH": "2025-12-01T10:10:20.091360", "MEAN_MOTION": 14.1562895, "ECCENTRICITY": 0.00392526, "INCLINATION": 98.7925, "RA_OF_ASC_NODE": 24.5506, "ARG_OF_PERICENTER": 323.0087, "MEAN_ANOMALY": 36.8381, "EPHEMERIS_TYPE": 0, "CLASSIFICATION_TYPE": "U", "NORAD_CAT_ID": 32200, "ELEMENT_SET_NO": 999, "REV_AT_EPOCH": 94203, "BSTAR": 0.0011757529, "MEAN_MOTION_DOT": 2.276e-05, "MEAN_MOTION_DDOT": 0}, "tle": {"line1": "1 32200U 99025CUW 25335.42384365  .00002276  00000+0  11758-2 0  9995", "line2": "2 32200  98.7925  24.5506 0039252 323.0087  36.8381 14.15628950942033"}}, "geometry": {"type": "Point", "coordinates": [30.760298091483104, -18.31757539383189]}}]}